{
  "type": "FeatureCollection",
  "features": [
    {
      "type": "Feature",
      "properties": {
        "norad_id": 33886,
        "name": "IRIDIUM 33 DEB",
        "group": "iridium-33-debris",
        "lat": -2.967792029793063,
        "lon": -115.40820233467228,
        "alt_km": 767.470318237738,
        "timestamp": "2025-12-19T10:50:01.586312+00:00",
        "meta_object_name": "IRIDIUM 33 DEB",
        "meta_object_id": "1997-051BF",
        "meta_epoch": "2025-12-18T16:07:41.003904",
        "meta_mean_motion": 14.36058837,
        "meta_eccentricity": 0.00127909,
        "meta_inclination": 86.3827,
        "meta_ra_of_asc_node": 64.7319,
        "meta_arg_of_pericenter": 220.2535,
        "meta_mean_anomaly": 255.8567,
        "meta_ephemeris_type": 0,
        "meta_classification_type": "U",
        "meta_norad_cat_id": 33886,
        "meta_element_set_no": 999,
        "meta_rev_at_epoch": 88137,
        "meta_bstar": 0.00015284877,
        "meta_mean_motion_dot": 4.64e-06,
        "meta_mean_motion_ddot": 0,
        "tle_line1": "1 33886U 97051BF  25352.67200236  .00000464  00000+0  15285-3 0  9990",
        "tle_line2": "2 33886  86.3827  64.7319 0012790 220.2535 255.8567 14.36058837881372"
      },
      "geometry": {
        "type": "Point",
        "coordinates": [
          -115.40820233467228,
          -2.967792029793063
        ]
      }
    },
    {
      "type": "Feature",
      "properties": {
        "norad_id": 33887,
        "name": "IRIDIUM 33 DEB",
        "group": "iridium-33-debris",
        "lat": 32.48580310172272,
        "lon": 178.1411210177847,
        "alt_km": 763.6165752485913,
        "timestamp": "2025-12-19T10:50:01.586322+00:00",
        "meta_object_name": "IRIDIUM 33 DEB",
        "meta_object_id": "1997-051BG",
        "meta_epoch": "2025-12-18T19:39:57.441312",
        "meta_mean_motion": 14.372263,
        "meta_eccentricity": 0.00050495,
        "meta_inclination": 86.3041,
        "meta_ra_of_asc_node": 0.7721,
        "meta_arg_of_pericenter": 201.7113,
        "meta_mean_anomaly": 277.8089,
        "meta_ephemeris_type": 0,
        "meta_classification_type": "U",
        "meta_norad_cat_id": 33887,
        "meta_element_set_no": 999,
        "meta_rev_at_epoch": 88252,
        "meta_bstar": 0.00011616514,
        "meta_mean_motion_dot": 3.66e-06,
        "meta_mean_motion_ddot": 0,
        "tle_line1": "1 33887U 97051BG  25352.81941483  .00000366  00000+0  11617-3 0  9999",
        "tle_line2": "2 33887  86.3041   0.7721 0005049 201.7113 277.8089 14.37226300882527"
      },
      "geometry": {
        "type": "Point",
        "coordinates": [
          178.1411210177847,
          32.48580310172272
        ]
      }
    },
    {
      "type": "Feature",
      "properties": {
        "norad_id": 33953,
        "name": "IRIDIUM 33 DEB",
        "group": "iridium-33-debris",
        "lat": 79.73786871376751,
        "lon": 71.30715000514749,
        "alt_km": 688.0326655050876,
        "timestamp": "2025-12-19T10:50:01.586333+00:00",
        "meta_object_name": "IRIDIUM 33 DEB",
        "meta_object_id": "1997-051BN",
        "meta_epoch": "2025-12-18T15:14:55.461696",
        "meta_mean_motion": 14.5537891,
        "meta_eccentricity": 0.00180649,
        "meta_inclination": 86.3845,
        "meta_ra_of_asc_node": 51.2209,
        "meta_arg_of_pericenter": 84.8917,
        "meta_mean_anomaly": 42.7226,
        "meta_ephemeris_type": 0,
        "meta_classification_type": "U",
        "meta_norad_cat_id": 33953,
        "meta_element_set_no": 999,
        "meta_rev_at_epoch": 88389,
        "meta_bstar": 0.00081934216,
        "meta_mean_motion_dot": 3.584e-05,
        "meta_mean_motion_ddot": 0,
        "tle_line1": "1 33953U 97051BN  25352.63536414  .00003584  00000+0  81934-3 0  9991",
        "tle_line2": "2 33953  86.3845  51.2209 0018064  84.8917  42.7226 14.55378910883896"
      },
      "geometry": {
        "type": "Point",
        "coordinates": [
          71.30715000514749,
          79.73786871376751
        ]
      }
    },
    {
      "type": "Feature",
      "properties": {
        "norad_id": 33960,
        "name": "IRIDIUM 33 DEB",
        "group": "iridium-33-debris",
        "lat": -68.41619357396293,
        "lon": 115.88177089141708,
        "alt_km": 624.288681645754,
        "timestamp": "2025-12-19T10:50:01.586344+00:00",
        "meta_object_name": "IRIDIUM 33 DEB",
        "meta_object_id": "1997-051BV",
        "meta_epoch": "2025-12-18T21:04:17.238720",
        "meta_mean_motion": 14.85489781,
        "meta_eccentricity": 0.00074649,
        "meta_inclination": 86.254,
        "meta_ra_of_asc_node": 286.6192,
        "meta_arg_of_pericenter": 52.1098,
        "meta_mean_anomaly": 12.0352,
        "meta_ephemeris_type": 0,
        "meta_classification_type": "U",
        "meta_norad_cat_id": 33960,
        "meta_element_set_no": 999,
        "meta_rev_at_epoch": 88958,
        "meta_bstar": 0.0022083229,
        "meta_mean_motion_dot": 0.0001912,
        "meta_mean_motion_ddot": 0,
        "tle_line1": "1 33960U 97051BV  25352.87797730  .00019120  00000+0  22083-2 0  9997",
        "tle_line2": "2 33960  86.2540 286.6192 0007464  52.1098  12.0352 14.85489781889584"
      },
      "geometry": {
        "type": "Point",
        "coordinates": [
          115.88177089141708,
          -68.41619357396293
        ]
      }
    },
    {
      "type": "Feature",
      "properties": {
        "norad_id": 33966,
        "name": "IRIDIUM 33 DEB",
        "group": "iridium-33-debris",
        "lat": 67.28856213261376,
        "lon": 51.817983572373365,
        "alt_km": 721.331671266782,
        "timestamp": "2025-12-19T10:50:01.586354+00:00",
        "meta_object_name": "IRIDIUM 33 DEB",
        "meta_object_id": "1997-051CB",
        "meta_epoch": "2025-12-18T15:23:51.544320",
        "meta_mean_motion": 14.49616316,
        "meta_eccentricity": 0.00080643,
        "meta_inclination": 86.3918,
        "meta_ra_of_asc_node": 43.4945,
        "meta_arg_of_pericenter": 169.3872,
        "meta_mean_anomaly": 354.7755,
        "meta_ephemeris_type": 0,
        "meta_classification_type": "U",
        "meta_norad_cat_id": 33966,
        "meta_element_set_no": 999,
        "meta_rev_at_epoch": 88527,
        "meta_bstar": 0.00039110994,
        "meta_mean_motion_dot": 1.522e-05,
        "meta_mean_motion_ddot": 0,
        "tle_line1": "1 33966U 97051CB  25352.64156880  .00001522  00000+0  39111-3 0  9991",
        "tle_line2": "2 33966  86.3918  43.4945 0008064 169.3872 354.7755 14.49616316885274"
      },
      "geometry": {
        "type": "Point",
        "coordinates": [
          51.817983572373365,
          67.28856213261376
        ]
      }
    },
    {
      "type": "Feature",
      "properties": {
        "norad_id": 34071,
        "name": "IRIDIUM 33 DEB",
        "group": "iridium-33-debris",
        "lat": 48.71515654245091,
        "lon": -169.26358243393304,
        "alt_km": 717.7744967200933,
        "timestamp": "2025-12-19T10:50:01.586364+00:00",
        "meta_object_name": "IRIDIUM 33 DEB",
        "meta_object_id": "1997-051CE",
        "meta_epoch": "2025-12-18T14:21:00.592128",
        "meta_mean_motion": 14.49489321,
        "meta_eccentricity": 0.00099496,
        "meta_inclination": 86.345,
        "meta_ra_of_asc_node": 15.282,
        "meta_arg_of_pericenter": 91.6671,
        "meta_mean_anomaly": 268.5673,
        "meta_ephemeris_type": 0,
        "meta_classification_type": "U",
        "meta_norad_cat_id": 34071,
        "meta_element_set_no": 999,
        "meta_rev_at_epoch": 88419,
        "meta_bstar": 0.00044954259,
        "meta_mean_motion_dot": 1.742e-05,
        "meta_mean_motion_ddot": 0,
        "tle_line1": "1 34071U 97051CE  25352.59792352  .00001742  00000+0  44954-3 0  9998",
        "tle_line2": "2 34071  86.3450  15.2820 0009949  91.6671 268.5673 14.49489321884194"
      },
      "geometry": {
        "type": "Point",
        "coordinates": [
          -169.26358243393304,
          48.71515654245091
        ]
      }
    },
    {
      "type": "Feature",
      "properties": {
        "norad_id": 34077,
        "name": "IRIDIUM 33 DEB",
        "group": "iridium-33-debris",
        "lat": -15.350196307870108,
        "lon": 47.55702403514668,
        "alt_km": 676.6115440120948,
        "timestamp": "2025-12-19T10:50:01.586375+00:00",
        "meta_object_name": "IRIDIUM 33 DEB",
        "meta_object_id": "1997-051CL",
        "meta_epoch": "2025-12-18T15:47:52.285920",
        "meta_mean_motion": 14.64897264,
        "meta_eccentricity": 0.00095369,
        "meta_inclination": 86.3856,
        "meta_ra_of_asc_node": 48.9006,
        "meta_arg_of_pericenter": 20.7053,
        "meta_mean_anomaly": 103.9539,
        "meta_ephemeris_type": 0,
        "meta_classification_type": "U",
        "meta_norad_cat_id": 34077,
        "meta_element_set_no": 999,
        "meta_rev_at_epoch": 88419,
        "meta_bstar": 0.00073197929,
        "meta_mean_motion_dot": 3.936e-05,
        "meta_mean_motion_ddot": 0,
        "tle_line1": "1 34077U 97051CL  25352.65824405  .00003936  00000+0  73198-3 0  9995",
        "tle_line2": "2 34077  86.3856  48.9006 0009536  20.7053 103.9539 14.64897264884197"
      },
      "geometry": {
        "type": "Point",
        "coordinates": [
          47.55702403514668,
          -15.350196307870108
        ]
      }
    }
  ]
}